[{"OBJECT_NAME":"OBJECT A","OBJECT_ID":"2023-189A","EPOCH":"2026-03-09T22:59:06.381600","MEAN_MOTION":15.32403275,"ECCENTRICITY":0.00094831,"INCLINATION":97.4458,"RA_OF_ASC_NODE":86.5997,"ARG_OF_PERICENTER":249.5377,"MEAN_ANOMALY":110.4847,"EPHEMERIS_TYPE":0,"CLASSIFICATION_TYPE":"U","NORAD_CAT_ID":58502,"ELEMENT_SET_NO":999,"REV_AT_EPOCH":12601,"BSTAR":0.00019874471,"MEAN_MOTION_DOT":6.146e-5,"MEAN_MOTION_DDOT":0},{"OBJECT_NAME":"STARLINK-34261","OBJECT_ID":"2025-147K","EPOCH":"2026-03-09T16:54:17.938656","MEAN_MOTION":15.30200016,"ECCENTRICITY":8.444e-5,"INCLINATION":53.1576,"RA_OF_ASC_NODE":242.7033,"ARG_OF_PERICENTER":89.4363,"MEAN_ANOMALY":270.6735,"EPHEMERIS_TYPE":0,"CLASSIFICATION_TYPE":"U","NORAD_CAT_ID":64764,"ELEMENT_SET_NO":999,"REV_AT_EPOCH":3879,"BSTAR":0.00081040703,"MEAN_MOTION_DOT":0.00023719,"MEAN_MOTION_DDOT":0}]
